NSS-11                  
1 26554U 00059A   26197.80377237  .00000013  00000+0  00000+0 0  9990
2 26554   2.2013  81.0368 0002926  42.6969 276.2444  1.00271472 41584
AMC-6                   
1 26580U 00067A   26197.74214514  .00000078  00000+0  00000+0 0  9990
2 26580   0.2258  83.7243 0003903  44.1163 298.8439  1.00271597 94188
AMC-15                  
1 28446U 04041A   26197.60556331 -.00000099  00000+0  00000+0 0  9994
2 28446   0.0362 298.3695 0002178 173.1593 295.8547  1.00271042 79593
NSS-10                  
1 28526U 05003A   26197.61458332 -.00000265  00000+0  00000+0 0  9990
2 28526   6.5217  70.0928 0002712  39.6281   8.5111  1.00272639 53456
ASTRA 1KR               
1 29055U 06012A   26197.82336531  .00000108  00000+0  00000+0 0  9993
2 29055   0.5486  83.1768 0003360  24.8299 142.0394  1.00271288 45994
ASTRA 1L                
1 31306U 07016A   26197.84003088 -.00000196  00000+0  00000+0 0  9998
2 31306   1.3965  81.3355 0005279  35.2157  96.0138  1.00271004 45281
ASTRA 4A                
1 32299U 07057A   26197.82892022  .00000022  00000+0  00000+0 0  9994
2 32299   0.0368 288.8956 0002367 191.9168 117.0398  1.00271883 51941
ASTRA 1M                
1 33436U 08057A   26197.82336531  .00000110  00000+0  00000+0 0  9995
2 33436   0.3708  82.7881 0004509  42.1063 125.5322  1.00270347 46034
NSS-9                   
1 33749U 09008A   26197.80515905  .00000060  00000+0  00000+0 0  9995
2 33749   1.3365  82.3627 0001919  22.2004 302.9877  1.00272638 63817
SES-7 (PROTOSTAR 2)     
1 34941U 09027A   26197.74350549 -.00000355  00000+0  00000+0 0  9993
2 34941   0.0123  49.6893 0001468 148.3545 112.4110  1.00269229 62927
NSS-12                  
1 36032U 09058A   26197.85152500  .00000061  00000+0  00000+0 0  9992
2 36032   0.0883 269.3923 0004877 170.2369 218.5784  1.00271310 61213
SES-1                   
1 36516U 10016A   26197.82006580 -.00000125  00000+0  00000+0 0  9990
2 36516   0.0601 270.8398 0002435 200.9897  17.0328  1.00271947 59338
ASTRA 3B                
1 36581U 10021A   26197.81780765  .00000126  00000+0  00000+0 0  9991
2 36581   1.5433  83.1931 0004371  22.8478 146.5046  1.00270895 59161
SES-3                   
1 37748U 11035A   26197.60590999 -.00000113  00000+0  00000+0 0  9995
2 37748   1.4008  82.7593 0002000  33.3515 293.4605  1.00271460 54885
ASTRA 1N                
1 37775U 11041A   26197.82336531  .00000109  00000+0  00000+0 0  9990
2 37775   0.0619  13.3405 0005819 101.6889 135.2044  1.00270503 44824
SES-2                   
1 37809U 11049A   26197.82301248 -.00000206  00000+0  00000+0 0  9992
2 37809   0.1322  90.9513 0002687  23.4383  29.5338  1.00272126 54268
QUETZSAT 1              
1 37826U 11054A   26197.82491916 -.00000252  00000+0  00000+0 0  9990
2 37826   0.0489 269.2805 0002766 214.7523  30.5839  1.00269379 50174
SES-4                   
1 38087U 12007A   26197.40814567 -.00000179  00000+0  00000+0 0  9992
2 38087   0.0223  40.0045 0002411  76.3339 302.8355  1.00271144 52516
SES-5                   
1 38652U 12036A   26197.82892022  .00000023  00000+0  00000+0 0  9997
2 38652   0.0434 324.9985 0002008 148.0675 124.9749  1.00271675 44753
ASTRA 2F                
1 38778U 12051A   26197.81780765  .00000139  00000+0  00000+0 0  9990
2 38778   0.0849 255.5393 0002989 287.6977  73.9686  1.00270202 41437
SES-6                   
1 39172U 13026A   26197.83215617 -.00000272  00000+0  00000+0 0  9992
2 39172   0.0203 347.2506 0002595 109.0776  97.4059  1.00272535 48020
O3B FM5                 
1 39188U 13031A   26197.42388816 -.00000025  00000+0  00000+0 0  9998
2 39188   0.0948 334.9068 0002804 125.4075 259.7133  5.00115606238505
O3B FM4                 
1 39189U 13031B   26197.34343950 -.00000025  00000+0  00000+0 0  9990
2 39189   0.0404 347.4278 0004922 110.2856 262.3385  5.00115623238505
O3B FM2                 
1 39190U 13031C   26197.60879890 -.00000025  00000+0  00000+0 0  9998
2 39190   0.0348 344.4664 0002715 126.6861 248.8724  5.00116049238582
O3B PFM                 
1 39191U 13031D   26197.42303144 -.00000025  00000+0  00000+0 0  9993
2 39191   0.0664 346.3956 0005239 118.1172 255.5413  5.00115865238130
ASTRA 2E                
1 39285U 13056A   26197.81780765  .00000140  00000+0  00000+0 0  9992
2 39285   0.0739 315.4916 0002644 154.6108 147.4182  1.00269758 46711
SES-8                   
1 39460U 13071A   26197.85897838 -.00000280  00000+0  00000+0 0  9994
2 39460   0.0522 254.5229 0002674 217.9375 226.4484  1.00272054 44723
ASTRA 5B                
1 39617U 14011B   26197.82308755  .00000126  00000+0  00000+0 0  9993
2 39617   0.0733 303.6605 0001929 180.1671 130.5948  1.00268933 44964
O3B FM3                 
1 40079U 14038A   26197.68961081 -.00000025  00000+0  00000+0 0  9996
2 40079   0.0477 352.7096 0002711 175.4678 191.8249  5.00115728214528
O3B FM7                 
1 40080U 14038B   26197.43584553 -.00000025  00000+0  00000+0 0  9996
2 40080   0.0450 344.1106 0003563  99.1830 276.7428  5.00115626219340
O3B FM6                 
1 40081U 14038C   26197.66270787 -.00000025  00000+0  00000+0 0  9993
2 40081   0.0462 349.8458 0002607 125.7262 244.4508  5.00115731219303
O3B FM8                 
1 40082U 14038D   26197.71594166 -.00000025  00000+0  00000+0 0  9990
2 40082   0.0458 348.6025 0002701 123.2748 248.1473  5.00116086219422
O3B FM10                
1 40348U 14083A   26197.74322066 -.00000025  00000+0  00000+0 0  9996
2 40348   0.0408 347.1886 0004802 114.2162 258.6450  5.00115529211373
O3B FM11                
1 40349U 14083B   26197.35606892 -.00000025  00000+0  00000+0 0  9996
2 40349   0.0552 351.2262 0002529 106.4403 262.3582  5.00115539211372
O3B FM12                
1 40350U 14083C   26197.58294822 -.00000025  00000+0  00000+0 0  9999
2 40350   0.0542 351.4138 0002472 121.1013 247.5069  5.00115910211384
O3B FM9                 
1 40351U 14083D   26197.60977442 -.00000025  00000+0  00000+0 0  9999
2 40351   0.0560 350.3278 0002676 122.7435 246.9528  5.00116010211542
ASTRA 2G                
1 40364U 14089A   26197.81780765  .00000139  00000+0  00000+0 0  9997
2 40364   0.0543  31.2833 0004509  44.2501 181.7024  1.00269158 42264
SES-9                   
1 41380U 16013A   26197.74350549 -.00000356  00000+0  00000+0 0  9992
2 41380   0.0137 344.7197 0002140 123.1522 202.6577  1.00271477 37735
SES-10                  
1 42432U 17017A   26197.82695617 -.00000283  00000+0  00000+0 0  9992
2 42432   0.0185  50.0191 0002569  69.1111  46.3217  1.00272600 34051
SES-15                  
1 42709U 17026A   26197.60079662  .00000049  00000+0  00000+0 0  9990
2 42709   0.0270 328.2107 0000340 135.1509 278.1930  1.00268575  7727
SES-11 (ECHOSTAR 105)   
1 42967U 17063A   26197.60556331 -.00000100  00000+0  00000+0 0  9999
2 42967   0.0337 304.5272 0002707 159.7550 303.1952  1.00271188 32011
SES-14                  
1 43175U 18012B   26197.75947854 -.00000289  00000+0  00000+0 0  9994
2 43175   0.0135  34.6628 0000812  87.0644  38.7579  1.00271925  7328
O3B FM15                
1 43231U 18024A   26197.47670257 -.00000025  00000+0  00000+0 0  9997
2 43231   0.0529 359.5981 0002595 113.4831 246.9421  5.00115777152495
O3B FM16                
1 43232U 18024B   26197.72891436 -.00000025  00000+0  00000+0 0  9990
2 43232   0.0534   4.0123 0002613 108.7935 247.2177  5.00115975152420
O3B FM14                
1 43233U 18024C   26196.57038938 -.00000024  00000+0  00000+0 0  9992
2 43233   0.0522   5.1971 0002870 107.5775 247.2518  5.00115728152363
O3B FM13                
1 43234U 18024D   26196.23648676 -.00000024  00000+0  00000+0 0  9992
2 43234   0.0539 323.2184 0001930  92.4344 304.3616  5.00115602152468
SES-12                  
1 43488U 18049A   26197.78773897 -.00000280  00000+0  00000+0 0  9999
2 43488   0.0101  15.4509 0000738 244.6927  53.0483  1.00272050 29716
O3B FM20                
1 44112U 19020A   26197.79579757 -.00000025  00000+0  00000+0 0  9991
2 44112   0.0527 355.8322 0002351 111.9164 252.2729  5.00115609133047
O3B FM19                
1 44113U 19020B   26197.22314243 -.00000024  00000+0  00000+0 0  9996
2 44113   0.0665 346.3645 0005369 122.3099 251.3799  5.00115985132895
O3B FM17                
1 44114U 19020C   26196.30385961 -.00000024  00000+0  00000+0 0  9990
2 44114   0.0368  11.5367 0002570 100.9574 247.5293  5.00115585132936
O3B FM18                
1 44115U 19020D   26197.24965545 -.00000024  00000+0  00000+0 0  9997
2 44115   0.0531 355.8320 0002744 118.6475 245.5451  5.00115371133108
SES-17                  
1 49332U 21095A   26197.75566520 -.00000283  00000+0  00000+0 0  9991
2 49332   0.0243  50.5252 0000834  64.0939  24.8920  1.00269281 18156
SES-22                  
1 52933U 22071A   26197.74110513  .00000094  00000+0  00000+0 0  9992
2 52933   0.0195  35.3798 0000862  73.2543 313.7072  1.00272289  7814
SES-20                  
1 53960U 22123A   26197.60590999 -.00000111  00000+0  00000+0 0  9997
2 53960   0.0168  67.9853 0001818  25.5717 315.8968  1.00269027 13824
SES-21                  
1 53961U 22123B   26197.60044994  .00000000  00000+0  00000+0 0  9993
2 53961   0.0372  35.9890 0000596  77.6249 266.0668  1.00267087  7504
O3B MPOWER F1           
1 54755U 22174A   26197.83581736 -.00000025  00000+0  00000+0 0  9994
2 54755   0.0490 339.2953 0006647 146.6609  69.5893  5.00114727 66841
O3B MPOWER F2           
1 54756U 22174B   26195.69507568 -.00000023  00000+0  00000+0 0  9996
2 54756   0.0451 339.8088 0005789 128.0659 252.1850  5.00114920 66825
SES-18                  
1 55970U 23038A   26197.60590999 -.00000111  00000+0  00000+0 0  9996
2 55970   0.0492 251.0475 0000763 314.0029 204.4135  1.00270383 12390
SES-19                  
1 55971U 23038B   26197.74223181  .00000077  00000+0  00000+0 0  9998
2 55971   0.0105  23.6874 0001559  89.8174 313.3459  1.00270104 12389
O3B MPOWER F4           
1 56367U 23059A   26197.35842944 -.00000025  00000+0  00000+0 0  9996
2 56367   0.0629 349.7471 0007732 128.2686 242.0585  5.00115393 60068
O3B MPOWER F3           
1 56368U 23059B   26197.79133997 -.00000025  00000+0  00000+0 0  9996
2 56368   0.0636 348.9026 0006663 122.8203 248.3440  5.00116391 56200
O3B MPOWER F5           
1 58346U 23175A   26197.29266757 -.00000025  00000+0  00000+0 0  9999
2 58346   0.0524   9.1024 0005522 123.8848 227.0551  5.00115806 50893
O3B MPOWER F6           
1 58347U 23175B   26197.59303487 -.00000025  00000+0  00000+0 0  9995
2 58347   0.0541   0.6661 0004430 113.0914 246.2849  5.00115756 49815
ASTRA 1P (SES-24)       
1 60086U 24115A   26194.35091053  .00000118  00000+0  00000+0 0  9999
2 60086   0.0666 329.5187 0001497 236.9138 230.3347  1.00281209  7460
O3B MPOWER F7           
1 62362U 24244A   26197.65943748 -.00000025  00000+0  00000+0 0  9992
2 62362   0.0658 342.6004 0005928 128.4491 249.0099  5.00115301 28001
O3B MPOWER F8           
1 62363U 24244B   26197.42649772 -.00000025  00000+0  00000+0 0  9998
2 62363   0.0146   5.8490 0005743  97.7266 256.4842  5.00115012 22331
O3B MPOWER F9           
1 64866U 25153A   26196.36042618 -.00000024  00000+0  00000+0 0  9995
2 64866   0.0613   5.5162 0006731 126.6630 227.8743  5.00115544 20978
O3B MPOWER F10          
1 64867U 25153B   26197.72571362 -.00000025  00000+0  00000+0 0  9991
2 64867   0.0586   2.0175 0002439 245.7813 112.1712  5.00114910 23512
